{"type": "FeatureCollection", "features": [{"type": "Feature", "properties": {"county": "Philadelphia", "lon": -75.13945506343214, "lat": 40.0023385, "n_pumas": 11}, "geometry": {"type": "Polygon", "coordinates": [[[-75.134301, 39.925781], [-75.128253, 39.913164], [-75.128537, 39.909095], [-75.131363, 39.899138], [-75.137296, 39.889966], [-75.143746, 39.884998], [-75.147366, 39.883921], [-75.180112, 39.882197], [-75.187889, 39.881095], [-75.192738, 39.879006], [-75.199857, 39.873222], [-75.211463, 39.867004], [-75.216039, 39.871115], [-75.215722, 39.876087], [-75.21977, 39.875479], [-75.234122, 39.877181], [-75.23637, 39.876187], [-75.24047, 39.872381], [-75.248431, 39.876485], [-75.252257, 39.875937], [-75.262528, 39.876561], [-75.263467, 39.878226], [-75.263328, 39.879712], [-75.264928, 39.881112], [-75.264433, 39.882167], [-75.262302, 39.882333], [-75.262387, 39.883446], [-75.264602, 39.884737], [-75.262844, 39.885682], [-75.265153, 39.887142], [-75.264276, 39.888401], [-75.262692, 39.888343], [-75.261743, 39.891774], [-75.259112, 39.892436], [-75.256662, 39.894848], [-75.257389, 39.895704], [-75.255095, 39.898666], [-75.255597, 39.899596], [-75.251288, 39.904403], [-75.253492, 39.905585], [-75.250319, 39.907626], [-75.249901, 39.909268], [-75.251237, 39.91011], [-75.247068, 39.913778], [-75.247715, 39.914837], [-75.246752, 39.916232], [-75.247601, 39.919076], [-75.247356, 39.922437], [-75.244301, 39.926353], [-75.244274, 39.930486], [-75.242186, 39.933426], [-75.237407, 39.932648], [-75.236404, 39.935318], [-75.234979, 39.936222], [-75.235002, 39.938127], [-75.23957, 39.938039], [-75.240763, 39.938794], [-75.239411, 39.940608], [-75.240149, 39.942086], [-75.246469, 39.942667], [-75.251376, 39.949065], [-75.251643, 39.951954], [-75.249006, 39.956907], [-75.25085, 39.959099], [-75.247922, 39.961085], [-75.247479, 39.963528], [-75.248056, 39.964074], [-75.25414, 39.965404], [-75.257994, 39.963677], [-75.258797, 39.965571], [-75.260491, 39.966313], [-75.265448, 39.965257], [-75.270002, 39.967479], [-75.270422, 39.968479], [-75.275027, 39.969289], [-75.278609, 39.972263], [-75.280266, 39.974964], [-75.263687, 39.982658], [-75.256119, 39.987301], [-75.210619, 40.008652], [-75.205771, 40.011629], [-75.212219, 40.015461], [-75.218056, 40.020943], [-75.232323, 40.028107], [-75.239296, 40.03289], [-75.24617, 40.03829], [-75.249039, 40.041848], [-75.259621, 40.049238], [-75.264431, 40.054094], [-75.256286, 40.061081], [-75.22361, 40.092907], [-75.188461, 40.07275], [-75.176438, 40.084649], [-75.109431, 40.045874], [-75.10627, 40.049548], [-75.094056, 40.056771], [-75.087425, 40.063599], [-75.096733, 40.068989], [-75.09384, 40.071829], [-75.081189, 40.084116], [-75.077805, 40.08577], [-75.058342, 40.105892], [-75.020571, 40.132274], [-75.015066, 40.137992], [-74.997885, 40.127816], [-74.993595, 40.132266], [-74.992324, 40.130879], [-74.993973, 40.127045], [-74.988713, 40.125685], [-74.988632, 40.124416], [-74.98725, 40.123302], [-74.985076, 40.123874], [-74.982958, 40.123353], [-74.982213, 40.122057], [-74.982748, 40.120887], [-74.981947, 40.120245], [-74.978813, 40.119603], [-74.973219, 40.119891], [-74.970119, 40.117201], [-74.964991, 40.118635], [-74.96391, 40.117653], [-74.963129, 40.114978], [-74.963371, 40.110337], [-74.965359, 40.108024], [-74.963491, 40.10674], [-74.960886, 40.103104], [-74.961858, 40.099693], [-74.961342, 40.097496], [-74.958488, 40.09681], [-74.955763, 40.094982], [-74.957899, 40.090571], [-74.9576, 40.087094], [-74.958841, 40.082503], [-74.963145, 40.077326], [-74.965924, 40.077281], [-74.966882, 40.076439], [-74.969855, 40.076383], [-74.971355, 40.075541], [-74.971062, 40.073731], [-74.972445, 40.072235], [-74.976699, 40.069144], [-74.977634, 40.067589], [-74.980878, 40.066028], [-74.980378, 40.060349], [-74.984893, 40.057287], [-74.983487, 40.054448], [-74.980028, 40.053637], [-74.973981, 40.048595], [-75.000617, 40.0287], [-75.013237, 40.020303], [-75.034216, 40.015219], [-75.04709, 40.009941], [-75.053405, 40.004568], [-75.058089, 39.997404], [-75.059913, 39.991529], [-75.064175, 39.986027], [-75.071264, 39.980493], [-75.075605, 39.978041], [-75.085831, 39.975102], [-75.096372, 39.973981], [-75.108089, 39.970332], [-75.119491, 39.965372], [-75.130591, 39.958608], [-75.133698, 39.95462], [-75.135239, 39.950677], [-75.136268, 39.943282], [-75.136151, 39.932974], [-75.134301, 39.925781]]]}}, {"type": "Feature", "properties": {"county": "Delaware", "lon": -75.37811183994106, "lat": 39.9339755, "n_pumas": 4}, "geometry": {"type": "Polygon", "coordinates": [[[-75.246752, 39.916232], [-75.247715, 39.914837], [-75.247068, 39.913778], [-75.251237, 39.91011], [-75.249901, 39.909268], [-75.250319, 39.907626], [-75.253492, 39.905585], [-75.251288, 39.904403], [-75.255597, 39.899596], [-75.255095, 39.898666], [-75.257389, 39.895704], [-75.256662, 39.894848], [-75.259112, 39.892436], [-75.261743, 39.891774], [-75.262692, 39.888343], [-75.264276, 39.888401], [-75.265153, 39.887142], [-75.262844, 39.885682], [-75.264602, 39.884737], [-75.262387, 39.883446], [-75.262302, 39.882333], [-75.264433, 39.882167], [-75.264928, 39.881112], [-75.263328, 39.879712], [-75.263467, 39.878226], [-75.262528, 39.876561], [-75.252257, 39.875937], [-75.248431, 39.876485], [-75.24047, 39.872381], [-75.23637, 39.876187], [-75.234122, 39.877181], [-75.21977, 39.875479], [-75.215722, 39.876087], [-75.216039, 39.871115], [-75.211463, 39.867004], [-75.221371, 39.861543], [-75.234718, 39.856732], [-75.272202, 39.849076], [-75.293376, 39.848782], [-75.309674, 39.850178], [-75.323231, 39.849813], [-75.330432, 39.849013], [-75.342422, 39.845845], [-75.354401, 39.839917], [-75.37173, 39.827559], [-75.398417, 39.810467], [-75.415062, 39.801919], [-75.43467, 39.812488], [-75.454916, 39.820993], [-75.472445, 39.826884], [-75.498345, 39.83338], [-75.515564, 39.836361], [-75.534977, 39.838531], [-75.557403, 39.839507], [-75.579926, 39.838862], [-75.583825, 39.843022], [-75.586449, 39.844343], [-75.58917, 39.843213], [-75.593099, 39.837723], [-75.595568, 39.837644], [-75.597361, 39.838883], [-75.597742, 39.841147], [-75.594865, 39.844899], [-75.594111, 39.84994], [-75.591917, 39.851413], [-75.591997, 39.852535], [-75.601252, 39.855411], [-75.601384, 39.856834], [-75.596406, 39.862971], [-75.596712, 39.864339], [-75.594818, 39.866729], [-75.593011, 39.867035], [-75.592631, 39.868455], [-75.59363, 39.869996], [-75.595604, 39.870787], [-75.597914, 39.874464], [-75.584761, 39.880978], [-75.587192, 39.884207], [-75.58615, 39.884818], [-75.583695, 39.884779], [-75.582416, 39.885741], [-75.580414, 39.883746], [-75.571162, 39.888136], [-75.574253, 39.892153], [-75.572292, 39.893194], [-75.573381, 39.896397], [-75.559291, 39.902984], [-75.560288, 39.904294], [-75.559273, 39.904751], [-75.561308, 39.907429], [-75.558645, 39.90868], [-75.556106, 39.90534], [-75.546416, 39.909731], [-75.550454, 39.914931], [-75.542494, 39.918417], [-75.544106, 39.920467], [-75.544395, 39.923401], [-75.541084, 39.925098], [-75.542734, 39.927181], [-75.536109, 39.929926], [-75.530238, 39.922123], [-75.527172, 39.92344], [-75.525832, 39.921816], [-75.523505, 39.923142], [-75.530475, 39.932049], [-75.529626, 39.932458], [-75.530168, 39.933361], [-75.526171, 39.934987], [-75.524591, 39.931829], [-75.518963, 39.934302], [-75.518345, 39.936104], [-75.519686, 39.937722], [-75.519541, 39.938956], [-75.523816, 39.944124], [-75.436055, 39.984948], [-75.43563, 39.98883], [-75.438219, 39.990714], [-75.438363, 39.991936], [-75.436847, 39.992968], [-75.437692, 39.993894], [-75.441731, 39.992125], [-75.4431, 39.993708], [-75.453771, 39.993589], [-75.404394, 40.027434], [-75.414991, 40.041787], [-75.360069, 40.066196], [-75.356534, 40.062787], [-75.320699, 40.016216], [-75.311432, 40.01981], [-75.30784, 40.01459], [-75.283928, 39.987217], [-75.276482, 39.976959], [-75.280266, 39.974964], [-75.278609, 39.972263], [-75.275027, 39.969289], [-75.270422, 39.968479], [-75.270002, 39.967479], [-75.265448, 39.965257], [-75.260491, 39.966313], [-75.258797, 39.965571], [-75.257994, 39.963677], [-75.25414, 39.965404], [-75.250313, 39.965069], [-75.247479, 39.963528], [-75.247922, 39.961085], [-75.25085, 39.959099], [-75.249006, 39.956907], [-75.251643, 39.951954], [-75.251376, 39.949065], [-75.246469, 39.942667], [-75.240149, 39.942086], [-75.239411, 39.940608], [-75.240763, 39.938794], [-75.23957, 39.938039], [-75.235002, 39.938127], [-75.234979, 39.936222], [-75.236404, 39.935318], [-75.237407, 39.932648], [-75.242186, 39.933426], [-75.244274, 39.930486], [-75.244301, 39.926353], [-75.247356, 39.922437], [-75.247601, 39.919076], [-75.246752, 39.916232]]]}}, {"type": "Feature", "properties": {"county": "Montgomery", "lon": -75.362420741681, "lat": 40.2117735, "n_pumas": 7}, "geometry": {"type": "Polygon", "coordinates": [[[-75.210619, 40.008652], [-75.276482, 39.976959], [-75.283928, 39.987217], [-75.30784, 40.01459], [-75.311432, 40.01981], [-75.320699, 40.016216], [-75.356534, 40.062787], [-75.360069, 40.066196], [-75.361066, 40.065543], [-75.366687, 40.072355], [-75.392632, 40.060974], [-75.420124, 40.097201], [-75.437864, 40.089573], [-75.440721, 40.094322], [-75.456186, 40.087776], [-75.456666, 40.094453], [-75.462926, 40.097253], [-75.461729, 40.103035], [-75.463918, 40.103532], [-75.468961, 40.107061], [-75.471603, 40.111853], [-75.469409, 40.116664], [-75.463228, 40.119215], [-75.461667, 40.120821], [-75.461599, 40.124825], [-75.465863, 40.127136], [-75.47245, 40.129298], [-75.481083, 40.126796], [-75.491882, 40.126067], [-75.505624, 40.132634], [-75.5097, 40.137059], [-75.510753, 40.141722], [-75.508653, 40.146531], [-75.501429, 40.153619], [-75.500656, 40.155619], [-75.501076, 40.157436], [-75.502718, 40.159196], [-75.505545, 40.1601], [-75.511363, 40.15934], [-75.513214, 40.158296], [-75.515669, 40.154863], [-75.518519, 40.148502], [-75.522174, 40.147085], [-75.525945, 40.148611], [-75.527734, 40.151392], [-75.526615, 40.158562], [-75.528941, 40.168396], [-75.540986, 40.175951], [-75.549381, 40.190037], [-75.553391, 40.200354], [-75.557148, 40.207213], [-75.561125, 40.209815], [-75.563995, 40.209345], [-75.564906, 40.206185], [-75.562537, 40.202066], [-75.562878, 40.197361], [-75.567015, 40.19428], [-75.570352, 40.194117], [-75.573338, 40.195303], [-75.57869, 40.200003], [-75.581098, 40.206404], [-75.587757, 40.214449], [-75.594747, 40.230373], [-75.596674, 40.236575], [-75.601356, 40.23805], [-75.60589, 40.237051], [-75.607407, 40.235605], [-75.607468, 40.232773], [-75.603703, 40.229549], [-75.603173, 40.227006], [-75.607416, 40.22397], [-75.612373, 40.222997], [-75.616278, 40.224911], [-75.618935, 40.22944], [-75.6209, 40.230699], [-75.625998, 40.231986], [-75.634496, 40.235746], [-75.640254, 40.237054], [-75.651074, 40.242077], [-75.657595, 40.241393], [-75.664036, 40.2449], [-75.671199, 40.244576], [-75.67667, 40.242293], [-75.685578, 40.236575], [-75.688526, 40.236193], [-75.690554, 40.236633], [-75.692511, 40.238942], [-75.696782, 40.241863], [-75.529694, 40.446995], [-75.484057, 40.418451], [-75.425667, 40.38443], [-75.413589, 40.376335], [-75.294304, 40.304359], [-75.19768, 40.247648], [-75.126276, 40.203811], [-75.015066, 40.137992], [-75.020571, 40.132274], [-75.058342, 40.105892], [-75.077805, 40.08577], [-75.081189, 40.084116], [-75.09384, 40.071829], [-75.096733, 40.068989], [-75.087425, 40.063599], [-75.094056, 40.056771], [-75.10627, 40.049548], [-75.109431, 40.045874], [-75.176438, 40.084649], [-75.188461, 40.07275], [-75.22361, 40.092907], [-75.256286, 40.061081], [-75.264431, 40.054094], [-75.259621, 40.049238], [-75.249039, 40.041848], [-75.24617, 40.03829], [-75.239296, 40.03289], [-75.232323, 40.028107], [-75.218056, 40.020943], [-75.212219, 40.015461], [-75.205771, 40.011629], [-75.210619, 40.008652]]]}}, {"type": "Feature", "properties": {"county": "Bucks", "lon": -75.12669398956325, "lat": 40.326443999999995, "n_pumas": 5}, "geometry": {"type": "Polygon", "coordinates": [[[-74.911189, 40.070262], [-74.921898, 40.071446], [-74.930642, 40.069537], [-74.966891, 40.052716], [-74.973981, 40.048595], [-74.980028, 40.053637], [-74.983487, 40.054448], [-74.984893, 40.057287], [-74.980378, 40.060349], [-74.980878, 40.066028], [-74.977634, 40.067589], [-74.976699, 40.069144], [-74.972445, 40.072235], [-74.971062, 40.073731], [-74.971355, 40.075541], [-74.969855, 40.076383], [-74.966882, 40.076439], [-74.965924, 40.077281], [-74.963145, 40.077326], [-74.958841, 40.082503], [-74.9576, 40.087094], [-74.957899, 40.090571], [-74.955763, 40.094982], [-74.958488, 40.09681], [-74.961342, 40.097496], [-74.961858, 40.099693], [-74.960886, 40.103104], [-74.963491, 40.10674], [-74.965359, 40.108024], [-74.963371, 40.110337], [-74.963129, 40.114978], [-74.96391, 40.117653], [-74.964991, 40.118635], [-74.970119, 40.117201], [-74.973219, 40.119891], [-74.978813, 40.119603], [-74.981947, 40.120245], [-74.982748, 40.120887], [-74.982213, 40.122057], [-74.982958, 40.123353], [-74.985076, 40.123874], [-74.98725, 40.123302], [-74.988632, 40.124416], [-74.988713, 40.125685], [-74.993973, 40.127045], [-74.992324, 40.130879], [-74.993595, 40.132266], [-74.997885, 40.127816], [-75.126276, 40.203811], [-75.19768, 40.247648], [-75.294304, 40.304359], [-75.413589, 40.376335], [-75.425667, 40.38443], [-75.484057, 40.418451], [-75.409733, 40.487984], [-75.338633, 40.534068], [-75.333048, 40.536767], [-75.293528, 40.561978], [-75.266366, 40.57758], [-75.258151, 40.582009], [-75.196803, 40.60858], [-75.192291, 40.602676], [-75.191443, 40.595492], [-75.189268, 40.589919], [-75.189692, 40.587671], [-75.19415, 40.582843], [-75.195496, 40.578627], [-75.194105, 40.576079], [-75.18827, 40.570547], [-75.181251, 40.566715], [-75.172877, 40.564423], [-75.160484, 40.564401], [-75.144932, 40.573869], [-75.140172, 40.57537], [-75.134995, 40.575662], [-75.115536, 40.57286], [-75.099827, 40.567398], [-75.078348, 40.548138], [-75.075138, 40.545579], [-75.068581, 40.542185], [-75.067056, 40.538443], [-75.06509, 40.526278], [-75.065688, 40.522106], [-75.064842, 40.503503], [-75.0633, 40.499728], [-75.062576, 40.494074], [-75.062761, 40.480026], [-75.064795, 40.476475], [-75.067715, 40.473669], [-75.067016, 40.465308], [-75.070419, 40.458407], [-75.070608, 40.456196], [-75.065946, 40.445266], [-75.061316, 40.42263], [-75.058575, 40.418193], [-75.055888, 40.416471], [-75.045526, 40.413679], [-75.042311, 40.410999], [-75.035504, 40.407443], [-75.034907, 40.406393], [-75.028633, 40.403971], [-75.023028, 40.403693], [-75.007443, 40.407597], [-75.004049, 40.407524], [-75.000637, 40.409466], [-74.99586, 40.410384], [-74.988413, 40.408494], [-74.983131, 40.404599], [-74.967499, 40.398813], [-74.964431, 40.395948], [-74.961478, 40.388935], [-74.954063, 40.376351], [-74.947122, 40.360209], [-74.944517, 40.345063], [-74.942843, 40.341506], [-74.939711, 40.338006], [-74.91741, 40.322406], [-74.90831, 40.316907], [-74.90331, 40.315607], [-74.896409, 40.315107], [-74.887109, 40.310307], [-74.880609, 40.305607], [-74.868208, 40.295206], [-74.864692, 40.290684], [-74.860492, 40.284584], [-74.842308, 40.250508], [-74.836307, 40.246208], [-74.823907, 40.241508], [-74.819507, 40.238508], [-74.795306, 40.229408], [-74.771404, 40.215144], [-74.766989, 40.206674], [-74.760605, 40.198909], [-74.756905, 40.189409], [-74.754305, 40.185209], [-74.751705, 40.183309], [-74.744105, 40.181009], [-74.737205, 40.177609], [-74.733804, 40.174509], [-74.722325, 40.160727], [-74.721519, 40.158568], [-74.722048, 40.150311], [-74.724369, 40.146412], [-74.741184, 40.135165], [-74.743738, 40.134454], [-74.756006, 40.134778], [-74.762323, 40.132881], [-74.781555, 40.121454], [-74.784842, 40.120388], [-74.799421, 40.122703], [-74.815476, 40.127694], [-74.822531, 40.126844], [-74.826226, 40.124066], [-74.828646, 40.120497], [-74.833103, 40.111972], [-74.834084, 40.107184], [-74.835868, 40.103466], [-74.842215, 40.098502], [-74.853745, 40.093926], [-74.857634, 40.090215], [-74.859721, 40.085311], [-74.861756, 40.083462], [-74.877533, 40.079957], [-74.904549, 40.071536], [-74.911189, 40.070262]]]}}, {"type": "Feature", "properties": {"county": "Chester", "lon": -75.71059135553242, "lat": 39.981145, "n_pumas": 5}, "geometry": {"type": "MultiPolygon", "coordinates": [[[[-76.136672, 39.725268], [-76.134045, 39.727171], [-76.128262, 39.727657], [-76.124712, 39.726606], [-76.122252, 39.723407], [-76.119195, 39.723444], [-76.118305, 39.724809], [-76.120304, 39.729848], [-76.119778, 39.73193], [-76.120651, 39.735128], [-76.119924, 39.736364], [-76.113616, 39.737125], [-76.108565, 39.734836], [-76.111177, 39.728521], [-76.106288, 39.724269], [-76.102479, 39.724033], [-76.099887, 39.727443], [-76.096762, 39.729087], [-76.092592, 39.734187], [-76.096188, 39.737236], [-76.10159, 39.739104], [-76.10205, 39.739884], [-76.100657, 39.742877], [-76.100467, 39.745525], [-76.098608, 39.745486], [-76.096877, 39.743111], [-76.094035, 39.742733], [-76.088033, 39.744932], [-76.085052, 39.747359], [-76.082599, 39.75305], [-76.085794, 39.75589], [-76.081852, 39.761351], [-76.076461, 39.761813], [-76.067427, 39.75965], [-76.064891, 39.761884], [-76.062468, 39.765098], [-76.064923, 39.770283], [-76.064564, 39.771189], [-76.060524, 39.775011], [-76.058397, 39.779861], [-76.055388, 39.780279], [-76.050529, 39.782793], [-76.049678, 39.783784], [-76.048525, 39.78924], [-76.043637, 39.791242], [-76.045104, 39.793033], [-76.041365, 39.797196], [-76.043507, 39.797852], [-76.045738, 39.800989], [-76.049472, 39.802208], [-76.049161, 39.803534], [-76.04572, 39.803778], [-76.040223, 39.801121], [-76.038501, 39.80173], [-76.035123, 39.808143], [-76.035216, 39.811835], [-76.034438, 39.812517], [-76.029925, 39.812505], [-76.031826, 39.81899], [-76.037319, 39.824526], [-76.037636, 39.826917], [-76.0331, 39.825988], [-76.030232, 39.823973], [-76.027034, 39.824153], [-76.023784, 39.827134], [-76.022826, 39.8308], [-76.017356, 39.830607], [-76.016473, 39.831481], [-76.017783, 39.834876], [-76.017227, 39.835921], [-76.018041, 39.836376], [-76.017809, 39.838173], [-76.019965, 39.840029], [-76.019152, 39.840965], [-76.020755, 39.845027], [-76.020953, 39.849459], [-76.022863, 39.848901], [-76.021165, 39.85209], [-76.018825, 39.85408], [-76.015805, 39.853758], [-76.014291, 39.852797], [-76.01158, 39.853178], [-76.008575, 39.851965], [-76.007576, 39.852349], [-76.006734, 39.853958], [-76.0076, 39.857432], [-76.006194, 39.861802], [-76.005638, 39.867346], [-76.004442, 39.86887], [-76.004472, 39.872178], [-76.002432, 39.874353], [-75.999951, 39.874755], [-75.998426, 39.874042], [-75.998451, 39.872123], [-75.991644, 39.868713], [-75.990492, 39.870936], [-75.987466, 39.872478], [-75.986914, 39.873499], [-75.988386, 39.878218], [-75.992347, 39.88216], [-75.990583, 39.884585], [-75.991495, 39.88524], [-75.991258, 39.887591], [-75.986762, 39.89298], [-75.993329, 39.898996], [-75.994388, 39.898257], [-75.995133, 39.898916], [-75.99455, 39.90254], [-75.995989, 39.903786], [-75.997516, 39.909891], [-75.99552, 39.911356], [-75.996103, 39.914552], [-75.994896, 39.916585], [-75.997132, 39.922062], [-75.995827, 39.924595], [-75.997303, 39.927009], [-75.997165, 39.928671], [-75.992597, 39.92657], [-75.991167, 39.927258], [-75.991924, 39.928576], [-75.991467, 39.929003], [-75.987363, 39.9298], [-75.98566, 39.931808], [-75.984083, 39.931765], [-75.982311, 39.929516], [-75.98136, 39.929755], [-75.980966, 39.933479], [-75.982152, 39.935619], [-75.9888, 39.940841], [-75.9896, 39.944706], [-75.992241, 39.945672], [-75.99104, 39.947576], [-75.994629, 39.952429], [-75.992014, 39.95555], [-75.990394, 39.959294], [-75.986163, 39.963887], [-75.986702, 39.96724], [-75.982504, 39.973327], [-75.93587, 40.037466], [-75.934332, 40.047566], [-75.936225, 40.065285], [-75.936135, 40.078585], [-75.942997, 40.109266], [-75.912548, 40.120633], [-75.873173, 40.137181], [-75.854611, 40.149261], [-75.743178, 40.216721], [-75.696782, 40.241863], [-75.692511, 40.238942], [-75.690554, 40.236633], [-75.688526, 40.236193], [-75.685578, 40.236575], [-75.67667, 40.242293], [-75.671199, 40.244576], [-75.664036, 40.2449], [-75.657595, 40.241393], [-75.651074, 40.242077], [-75.640254, 40.237054], [-75.634496, 40.235746], [-75.625998, 40.231986], [-75.6209, 40.230699], [-75.618935, 40.22944], [-75.616278, 40.224911], [-75.612373, 40.222997], [-75.607416, 40.22397], [-75.603173, 40.227006], [-75.603703, 40.229549], [-75.607468, 40.232773], [-75.607407, 40.235605], [-75.60589, 40.237051], [-75.601356, 40.23805], [-75.596674, 40.236575], [-75.594747, 40.230373], [-75.587757, 40.214449], [-75.581098, 40.206404], [-75.57869, 40.200003], [-75.573338, 40.195303], [-75.570352, 40.194117], [-75.567015, 40.19428], [-75.562878, 40.197361], [-75.562537, 40.202066], [-75.564906, 40.206185], [-75.563995, 40.209345], [-75.561125, 40.209815], [-75.557148, 40.207213], [-75.553391, 40.200354], [-75.549381, 40.190037], [-75.540986, 40.175951], [-75.528941, 40.168396], [-75.526615, 40.158562], [-75.527734, 40.151392], [-75.525945, 40.148611], [-75.522174, 40.147085], [-75.518519, 40.148502], [-75.515669, 40.154863], [-75.513214, 40.158296], [-75.511363, 40.15934], [-75.505545, 40.1601], [-75.502718, 40.159196], [-75.501076, 40.157436], [-75.500656, 40.155619], [-75.501429, 40.153619], [-75.508653, 40.146531], [-75.510753, 40.141722], [-75.5097, 40.137059], [-75.505624, 40.132634], [-75.491882, 40.126067], [-75.481083, 40.126796], [-75.47245, 40.129298], [-75.465863, 40.127136], [-75.461599, 40.124825], [-75.461667, 40.120821], [-75.463228, 40.119215], [-75.469409, 40.116664], [-75.471603, 40.111853], [-75.468961, 40.107061], [-75.463918, 40.103532], [-75.461729, 40.103035], [-75.462926, 40.097253], [-75.456666, 40.094453], [-75.456186, 40.087776], [-75.440721, 40.094322], [-75.437864, 40.089573], [-75.420124, 40.097201], [-75.392632, 40.060974], [-75.366687, 40.072355], [-75.361066, 40.065543], [-75.414991, 40.041787], [-75.404394, 40.027434], [-75.453771, 39.993589], [-75.4431, 39.993708], [-75.441731, 39.992125], [-75.437692, 39.993894], [-75.436847, 39.992968], [-75.438363, 39.991936], [-75.438219, 39.990714], [-75.43563, 39.98883], [-75.436055, 39.984948], [-75.523816, 39.944124], [-75.519541, 39.938956], [-75.519686, 39.937722], [-75.518345, 39.936104], [-75.518963, 39.934302], [-75.524591, 39.931829], [-75.526171, 39.934987], [-75.530168, 39.933361], [-75.529626, 39.932458], [-75.530475, 39.932049], [-75.523505, 39.923142], [-75.525832, 39.921816], [-75.527172, 39.92344], [-75.530238, 39.922123], [-75.536109, 39.929926], [-75.542734, 39.927181], [-75.541084, 39.925098], [-75.544395, 39.923401], [-75.544106, 39.920467], [-75.542494, 39.918417], [-75.550454, 39.914931], [-75.546416, 39.909731], [-75.556106, 39.90534], [-75.558645, 39.90868], [-75.561308, 39.907429], [-75.559273, 39.904751], [-75.560288, 39.904294], [-75.559291, 39.902984], [-75.573381, 39.896397], [-75.572292, 39.893194], [-75.574253, 39.892153], [-75.571162, 39.888136], [-75.580414, 39.883746], [-75.582416, 39.885741], [-75.583695, 39.884779], [-75.58615, 39.884818], [-75.587192, 39.884207], [-75.584761, 39.880978], [-75.597914, 39.874464], [-75.595604, 39.870787], [-75.59363, 39.869996], [-75.592631, 39.868455], [-75.593011, 39.867035], [-75.594818, 39.866729], [-75.596712, 39.864339], [-75.596406, 39.862971], [-75.601384, 39.856834], [-75.601252, 39.855411], [-75.598737, 39.8542], [-75.591997, 39.852535], [-75.591917, 39.851413], [-75.594111, 39.84994], [-75.594865, 39.844899], [-75.597742, 39.841147], [-75.597361, 39.838883], [-75.59488, 39.837525], [-75.624347, 39.832695], [-75.652932, 39.824949], [-75.680468, 39.813939], [-75.703732, 39.80125], [-75.714348, 39.794159], [-75.727175, 39.78422], [-75.736951, 39.775384], [-75.746707, 39.765141], [-75.760353, 39.747406], [-75.768603, 39.733325], [-75.773786, 39.7222], [-76.135484, 39.721147], [-76.136672, 39.725268]]], [[[-75.58917, 39.843213], [-75.586449, 39.844343], [-75.583825, 39.843022], [-75.579926, 39.838862], [-75.593099, 39.837723], [-75.58917, 39.843213]]]]}}, {"type": "Feature", "properties": {"county": "Gloucester", "lon": -75.14643798802939, "lat": 39.701758999999996, "n_pumas": 2}, "geometry": {"type": "Polygon", "coordinates": [[[-75.024252, 39.730582], [-75.004153, 39.721127], [-74.999319, 39.719915], [-74.997834, 39.717259], [-74.994386, 39.71602], [-74.994234, 39.711224], [-74.993438, 39.710052], [-74.989563, 39.708829], [-74.987551, 39.706701], [-74.978611, 39.703462], [-74.971803, 39.702239], [-74.95919, 39.703065], [-74.954284, 39.700498], [-74.953079, 39.699075], [-74.943677, 39.698361], [-74.93815, 39.695136], [-74.936524, 39.694932], [-74.932902, 39.691275], [-74.929968, 39.690335], [-74.930043, 39.688682], [-74.927058, 39.687378], [-74.927093, 39.684972], [-74.926232, 39.683989], [-74.923485, 39.682773], [-74.921491, 39.679443], [-74.918585, 39.679128], [-74.918563, 39.677791], [-74.916712, 39.674746], [-74.916887, 39.673463], [-74.915168, 39.672077], [-74.914927, 39.670523], [-74.913847, 39.670375], [-74.90886, 39.665302], [-74.910071, 39.662939], [-74.908979, 39.660712], [-74.909156, 39.654218], [-74.910506, 39.653498], [-74.9085, 39.650679], [-74.908138, 39.646252], [-74.907162, 39.645679], [-74.907261, 39.642527], [-74.906515, 39.641724], [-74.907442, 39.640749], [-74.905642, 39.639437], [-74.905225, 39.636283], [-74.902542, 39.632775], [-74.902725, 39.631879], [-74.900244, 39.630422], [-74.900236, 39.62975], [-74.897271, 39.628595], [-74.896577, 39.627018], [-74.89235, 39.624863], [-74.892002, 39.623517], [-74.893249, 39.622092], [-74.891873, 39.620065], [-74.892481, 39.619178], [-74.890826, 39.617366], [-74.882597, 39.613105], [-74.882552, 39.612003], [-74.879833, 39.610322], [-74.878887, 39.608716], [-74.87726, 39.608352], [-74.985271, 39.514967], [-75.077054, 39.579384], [-75.156952, 39.636737], [-75.194354, 39.662913], [-75.196915, 39.663657], [-75.199793, 39.666996], [-75.210484, 39.664027], [-75.212945, 39.664504], [-75.219373, 39.661822], [-75.22393, 39.663077], [-75.22887, 39.661941], [-75.235128, 39.661707], [-75.236116, 39.662609], [-75.247474, 39.664486], [-75.250704, 39.66862], [-75.250304, 39.6697], [-75.251127, 39.670952], [-75.250063, 39.673245], [-75.25171, 39.674414], [-75.251226, 39.676608], [-75.253018, 39.677798], [-75.253278, 39.679026], [-75.255359, 39.678755], [-75.261969, 39.681716], [-75.265773, 39.682226], [-75.270621, 39.682134], [-75.276021, 39.680424], [-75.279521, 39.680984], [-75.285999, 39.679588], [-75.287775, 39.681496], [-75.291052, 39.682759], [-75.291471, 39.683774], [-75.295145, 39.686154], [-75.297161, 39.685834], [-75.302159, 39.688404], [-75.304622, 39.687882], [-75.3073, 39.689605], [-75.310393, 39.68903], [-75.311714, 39.68781], [-75.314769, 39.6885], [-75.313753, 39.690186], [-75.316714, 39.691397], [-75.321784, 39.69125], [-75.322996, 39.690692], [-75.323062, 39.689744], [-75.324376, 39.689451], [-75.32672, 39.690372], [-75.326635, 39.694269], [-75.325549, 39.694684], [-75.326422, 39.696064], [-75.330903, 39.696779], [-75.331451, 39.698591], [-75.335285, 39.700378], [-75.336834, 39.704291], [-75.340297, 39.705213], [-75.34159, 39.704329], [-75.347428, 39.707108], [-75.348118, 39.70919], [-75.350252, 39.711247], [-75.356404, 39.712017], [-75.357225, 39.712963], [-75.360616, 39.714023], [-75.360271, 39.715289], [-75.361228, 39.71659], [-75.362637, 39.715924], [-75.36397, 39.71688], [-75.365318, 39.716492], [-75.366151, 39.71775], [-75.367239, 39.717565], [-75.367307, 39.719229], [-75.366335, 39.720198], [-75.367264, 39.720787], [-75.367436, 39.722286], [-75.369293, 39.721985], [-75.369163, 39.723249], [-75.370445, 39.723177], [-75.372342, 39.724774], [-75.372951, 39.724028], [-75.375263, 39.725329], [-75.374971, 39.726398], [-75.376635, 39.726572], [-75.375795, 39.729966], [-75.377964, 39.730462], [-75.377541, 39.731701], [-75.37563, 39.73189], [-75.375298, 39.734002], [-75.374102, 39.735374], [-75.374809, 39.737154], [-75.377, 39.738024], [-75.37735, 39.739055], [-75.376426, 39.73977], [-75.377777, 39.740996], [-75.376699, 39.741723], [-75.378627, 39.74703], [-75.380468, 39.748272], [-75.381306, 39.748022], [-75.381165, 39.746795], [-75.383211, 39.745797], [-75.383985, 39.746977], [-75.385847, 39.746969], [-75.387259, 39.749505], [-75.386366, 39.750837], [-75.387858, 39.750621], [-75.387903, 39.751754], [-75.388875, 39.752384], [-75.390622, 39.75121], [-75.390673, 39.750075], [-75.392687, 39.750644], [-75.394662, 39.753117], [-75.394993, 39.754945], [-75.393903, 39.755694], [-75.39117, 39.755309], [-75.390108, 39.75618], [-75.390283, 39.757], [-75.392749, 39.757975], [-75.392341, 39.758838], [-75.389965, 39.759659], [-75.389947, 39.76051], [-75.396118, 39.76138], [-75.396946, 39.760802], [-75.396623, 39.759417], [-75.39782, 39.757473], [-75.399491, 39.758426], [-75.399406, 39.76141], [-75.403204, 39.761253], [-75.405959, 39.763484], [-75.404922, 39.769043], [-75.403278, 39.770037], [-75.40165, 39.767883], [-75.400232, 39.767827], [-75.397367, 39.769234], [-75.395215, 39.772609], [-75.395372, 39.774205], [-75.399378, 39.772565], [-75.400394, 39.77297], [-75.400972, 39.775125], [-75.400104, 39.777354], [-75.402324, 39.782469], [-75.404011, 39.782874], [-75.404772, 39.781635], [-75.407584, 39.781126], [-75.408075, 39.78195], [-75.406185, 39.784206], [-75.40719, 39.785249], [-75.407517, 39.78724], [-75.409172, 39.787749], [-75.41351, 39.785011], [-75.417398, 39.785626], [-75.424715, 39.783881], [-75.427953, 39.783705], [-75.428302, 39.784373], [-75.423178, 39.786248], [-75.419329, 39.789725], [-75.411302, 39.793538], [-75.404274, 39.795567], [-75.415062, 39.801919], [-75.398417, 39.810467], [-75.37173, 39.827559], [-75.354401, 39.839917], [-75.342422, 39.845845], [-75.330432, 39.849013], [-75.323231, 39.849813], [-75.309674, 39.850178], [-75.293376, 39.848782], [-75.272202, 39.849076], [-75.246149, 39.853982], [-75.228634, 39.85856], [-75.221371, 39.861543], [-75.199857, 39.873222], [-75.195236, 39.877365], [-75.187889, 39.881095], [-75.180112, 39.882197], [-75.147366, 39.883921], [-75.143746, 39.884998], [-75.139832, 39.888317], [-75.12934, 39.883398], [-75.127483, 39.88148], [-75.128342, 39.879706], [-75.131746, 39.878524], [-75.13139, 39.877341], [-75.120635, 39.87261], [-75.12347, 39.872657], [-75.124402, 39.871787], [-75.122857, 39.870032], [-75.121896, 39.866248], [-75.118844, 39.862761], [-75.117237, 39.863205], [-75.118513, 39.866351], [-75.117465, 39.866852], [-75.113522, 39.864401], [-75.112687, 39.862685], [-75.114998, 39.861794], [-75.114334, 39.859714], [-75.10786, 39.859919], [-75.109659, 39.861493], [-75.108789, 39.862561], [-75.106986, 39.863382], [-75.104761, 39.862732], [-75.105675, 39.860056], [-75.10465, 39.856555], [-75.102615, 39.856274], [-75.094122, 39.851948], [-75.092609, 39.848923], [-75.089239, 39.846569], [-75.089721, 39.845685], [-75.088859, 39.844138], [-75.085155, 39.844598], [-75.083845, 39.843045], [-75.083272, 39.841651], [-75.084002, 39.841037], [-75.083748, 39.840208], [-75.087019, 39.838186], [-75.084532, 39.836497], [-75.08493, 39.834701], [-75.083113, 39.833636], [-75.083097, 39.832114], [-75.084347, 39.832831], [-75.086787, 39.831433], [-75.084952, 39.830524], [-75.082776, 39.827057], [-75.08524, 39.82551], [-75.085457, 39.823043], [-75.087177, 39.822534], [-75.08856, 39.820451], [-75.087084, 39.819485], [-75.087555, 39.81848], [-75.086546, 39.815707], [-75.088385, 39.815222], [-75.088494, 39.814039], [-75.085059, 39.813556], [-75.085303, 39.812598], [-75.084327, 39.811173], [-75.082928, 39.810641], [-75.082992, 39.809687], [-75.080528, 39.807831], [-75.081567, 39.806645], [-75.080436, 39.805792], [-75.077338, 39.806336], [-75.077011, 39.805022], [-75.075422, 39.804953], [-75.073683, 39.803041], [-75.076491, 39.798422], [-75.074979, 39.797374], [-75.074481, 39.79517], [-75.070491, 39.793597], [-75.076738, 39.790056], [-75.078356, 39.791122], [-75.080832, 39.789814], [-75.081939, 39.79133], [-75.085175, 39.785732], [-75.08707, 39.779576], [-75.077986, 39.780864], [-75.074413, 39.773962], [-75.072486, 39.774315], [-75.072881, 39.775475], [-75.069696, 39.776103], [-75.072003, 39.779785], [-75.065893, 39.782321], [-75.066629, 39.782811], [-75.06274, 39.785425], [-75.062657, 39.784372], [-75.060078, 39.783332], [-75.054462, 39.782602], [-75.053529, 39.78017], [-75.050987, 39.780116], [-75.049325, 39.778478], [-75.050285, 39.776434], [-75.049357, 39.771335], [-75.045987, 39.769193], [-75.043071, 39.763804], [-75.044397, 39.762147], [-75.04258, 39.760675], [-75.04068, 39.760927], [-75.039563, 39.760258], [-75.038733, 39.758629], [-75.03613, 39.757223], [-75.035436, 39.755106], [-75.031061, 39.752178], [-75.030226, 39.750693], [-75.027113, 39.749667], [-75.022159, 39.746397], [-75.021115, 39.744029], [-75.022509, 39.742964], [-75.0228, 39.740065], [-75.020108, 39.736533], [-75.021799, 39.733149], [-75.024252, 39.730582]]]}}, {"type": "Feature", "properties": {"county": "Camden", "lon": -74.99013892188759, "lat": 39.802217999999996, "n_pumas": 4}, "geometry": {"type": "Polygon", "coordinates": [[[-74.87726, 39.608352], [-74.878887, 39.608716], [-74.879833, 39.610322], [-74.882552, 39.612003], [-74.882597, 39.613105], [-74.890826, 39.617366], [-74.892481, 39.619178], [-74.891873, 39.620065], [-74.893249, 39.622092], [-74.892002, 39.623517], [-74.89235, 39.624863], [-74.896577, 39.627018], [-74.897271, 39.628595], [-74.900236, 39.62975], [-74.900244, 39.630422], [-74.902725, 39.631879], [-74.902542, 39.632775], [-74.905225, 39.636283], [-74.905642, 39.639437], [-74.907442, 39.640749], [-74.906515, 39.641724], [-74.907261, 39.642527], [-74.907162, 39.645679], [-74.908138, 39.646252], [-74.9085, 39.650679], [-74.910506, 39.653498], [-74.909156, 39.654218], [-74.908979, 39.660712], [-74.910071, 39.662939], [-74.90886, 39.665302], [-74.913847, 39.670375], [-74.914927, 39.670523], [-74.915168, 39.672077], [-74.916887, 39.673463], [-74.916712, 39.674746], [-74.918563, 39.677791], [-74.918585, 39.679128], [-74.921491, 39.679443], [-74.923485, 39.682773], [-74.926232, 39.683989], [-74.927093, 39.684972], [-74.927058, 39.687378], [-74.930043, 39.688682], [-74.930579, 39.690846], [-74.932902, 39.691275], [-74.936524, 39.694932], [-74.93815, 39.695136], [-74.943677, 39.698361], [-74.953079, 39.699075], [-74.954284, 39.700498], [-74.95919, 39.703065], [-74.971803, 39.702239], [-74.978611, 39.703462], [-74.987551, 39.706701], [-74.989563, 39.708829], [-74.993438, 39.710052], [-74.994234, 39.711224], [-74.994386, 39.71602], [-74.997834, 39.717259], [-74.999319, 39.719915], [-75.004153, 39.721127], [-75.015747, 39.725967], [-75.024252, 39.730582], [-75.021799, 39.733149], [-75.020108, 39.736533], [-75.0228, 39.740065], [-75.022509, 39.742964], [-75.02115, 39.744759], [-75.023393, 39.747411], [-75.030226, 39.750693], [-75.031061, 39.752178], [-75.035436, 39.755106], [-75.03613, 39.757223], [-75.038733, 39.758629], [-75.039563, 39.760258], [-75.04068, 39.760927], [-75.04258, 39.760675], [-75.044397, 39.762147], [-75.043071, 39.763804], [-75.044273, 39.766984], [-75.045987, 39.769193], [-75.049357, 39.771335], [-75.050285, 39.776434], [-75.049325, 39.778478], [-75.050987, 39.780116], [-75.053529, 39.78017], [-75.054462, 39.782602], [-75.060078, 39.783332], [-75.062657, 39.784372], [-75.06274, 39.785425], [-75.064725, 39.784593], [-75.066629, 39.782811], [-75.065893, 39.782321], [-75.072003, 39.779785], [-75.069696, 39.776103], [-75.072881, 39.775475], [-75.072486, 39.774315], [-75.074413, 39.773962], [-75.077986, 39.780864], [-75.08707, 39.779576], [-75.085175, 39.785732], [-75.081939, 39.79133], [-75.080832, 39.789814], [-75.078356, 39.791122], [-75.076738, 39.790056], [-75.070491, 39.793597], [-75.074481, 39.79517], [-75.074979, 39.797374], [-75.076491, 39.798422], [-75.073683, 39.803041], [-75.075422, 39.804953], [-75.077011, 39.805022], [-75.077338, 39.806336], [-75.080436, 39.805792], [-75.081567, 39.806645], [-75.080528, 39.807831], [-75.082992, 39.809687], [-75.082928, 39.810641], [-75.084327, 39.811173], [-75.085303, 39.812598], [-75.085059, 39.813556], [-75.088494, 39.814039], [-75.088385, 39.815222], [-75.086546, 39.815707], [-75.087555, 39.81848], [-75.087084, 39.819485], [-75.08856, 39.820451], [-75.087177, 39.822534], [-75.085457, 39.823043], [-75.08524, 39.82551], [-75.082776, 39.827057], [-75.084952, 39.830524], [-75.086787, 39.831433], [-75.084347, 39.832831], [-75.083097, 39.832114], [-75.083113, 39.833636], [-75.08493, 39.834701], [-75.084532, 39.836497], [-75.087019, 39.838186], [-75.083748, 39.840208], [-75.084002, 39.841037], [-75.083272, 39.841651], [-75.083845, 39.843045], [-75.085155, 39.844598], [-75.088859, 39.844138], [-75.089721, 39.845685], [-75.089239, 39.846569], [-75.092609, 39.848923], [-75.094122, 39.851948], [-75.102615, 39.856274], [-75.10465, 39.856555], [-75.105675, 39.860056], [-75.104761, 39.862732], [-75.106986, 39.863382], [-75.108789, 39.862561], [-75.109659, 39.861493], [-75.10786, 39.859919], [-75.114334, 39.859714], [-75.114998, 39.861794], [-75.112687, 39.862685], [-75.113522, 39.864401], [-75.117465, 39.866852], [-75.118513, 39.866351], [-75.117237, 39.863205], [-75.118844, 39.862761], [-75.121896, 39.866248], [-75.122857, 39.870032], [-75.124402, 39.871787], [-75.12347, 39.872657], [-75.120635, 39.87261], [-75.13139, 39.877341], [-75.131746, 39.878524], [-75.128342, 39.879706], [-75.127483, 39.88148], [-75.12934, 39.883398], [-75.139832, 39.888317], [-75.137296, 39.889966], [-75.131363, 39.899138], [-75.128537, 39.909095], [-75.128253, 39.913164], [-75.134301, 39.925781], [-75.136151, 39.932974], [-75.136268, 39.943282], [-75.135239, 39.950677], [-75.133698, 39.95462], [-75.130591, 39.958608], [-75.119491, 39.965372], [-75.108089, 39.970332], [-75.096372, 39.973981], [-75.085831, 39.975102], [-75.075605, 39.978041], [-75.067069, 39.983483], [-75.059913, 39.991529], [-75.049419, 39.991261], [-75.047893, 39.994084], [-75.045187, 39.994739], [-75.042784, 39.993396], [-75.041197, 39.994887], [-75.038965, 39.994766], [-75.036354, 39.996081], [-75.032323, 39.993925], [-75.033073, 39.992456], [-75.032497, 39.991798], [-75.028394, 39.991944], [-75.027353, 39.993589], [-75.025313, 39.990978], [-75.02203, 39.989993], [-75.02033, 39.990396], [-75.018387, 39.988954], [-75.018192, 39.986695], [-75.014686, 39.985064], [-75.013836, 39.980311], [-75.010146, 39.979768], [-75.014192, 39.976521], [-75.015417, 39.976513], [-75.015583, 39.975539], [-75.014796, 39.974901], [-75.016036, 39.973691], [-75.017028, 39.974775], [-75.017615, 39.973588], [-75.01599, 39.97259], [-75.016197, 39.97014], [-75.019866, 39.969361], [-75.020094, 39.968047], [-75.018907, 39.967176], [-75.018649, 39.963735], [-75.016662, 39.962301], [-75.016542, 39.960553], [-75.0176, 39.959375], [-75.013092, 39.956628], [-75.013331, 39.954201], [-75.016159, 39.950453], [-75.015081, 39.946813], [-75.012503, 39.945157], [-75.009065, 39.94512], [-75.006189, 39.942904], [-75.004725, 39.943091], [-75.004149, 39.941465], [-75.000141, 39.941693], [-74.999859, 39.940796], [-74.994428, 39.939365], [-74.99181, 39.940915], [-74.988739, 39.940971], [-74.987267, 39.939875], [-74.982232, 39.940443], [-74.97558, 39.939613], [-74.975084, 39.937811], [-74.978707, 39.934305], [-74.980745, 39.934166], [-74.981422, 39.931111], [-74.98455, 39.931292], [-74.985519, 39.929995], [-74.983873, 39.926796], [-74.974283, 39.921421], [-74.969637, 39.921746], [-74.967374, 39.920712], [-74.962837, 39.920185], [-74.960895, 39.916822], [-74.955904, 39.913217], [-74.95253, 39.907118], [-74.951947, 39.901672], [-74.949982, 39.898743], [-74.945533, 39.896322], [-74.943964, 39.892996], [-74.940945, 39.892478], [-74.930745, 39.885908], [-74.902963, 39.791108], [-74.898633, 39.789693], [-74.898321, 39.78781], [-74.894822, 39.783312], [-74.889814, 39.781982], [-74.876108, 39.781473], [-74.867953, 39.784766], [-74.853228, 39.78731], [-74.851449, 39.788602], [-74.847917, 39.788596], [-74.843208, 39.789919], [-74.830539, 39.788625], [-74.827714, 39.789202], [-74.819419, 39.788001], [-74.817983, 39.786022], [-74.81043, 39.784822], [-74.8061, 39.783013], [-74.798817, 39.777439], [-74.799018, 39.776392], [-74.798148, 39.775721], [-74.79676, 39.775713], [-74.79532, 39.773609], [-74.790724, 39.771303], [-74.78792, 39.7669], [-74.785294, 39.765757], [-74.783531, 39.763594], [-74.78376, 39.762451], [-74.782403, 39.761377], [-74.782508, 39.760037], [-74.781204, 39.758587], [-74.776937, 39.75779], [-74.774991, 39.756401], [-74.77503, 39.754312], [-74.773723, 39.75351], [-74.77382, 39.752384], [-74.77209, 39.750436], [-74.768307, 39.749558], [-74.766385, 39.746562], [-74.760241, 39.743585], [-74.759664, 39.742418], [-74.758633, 39.742675], [-74.75857, 39.743537], [-74.757354, 39.743433], [-74.756634, 39.742172], [-74.736216, 39.729775], [-74.87726, 39.608352]]]}}, {"type": "Feature", "properties": {"county": "Burlington", "lon": -74.68122269855778, "lat": 39.863164, "n_pumas": 3}, "geometry": {"type": "Polygon", "coordinates": [[[-74.676141, 39.691617], [-74.75857, 39.743537], [-74.758633, 39.742675], [-74.759664, 39.742418], [-74.760241, 39.743585], [-74.766385, 39.746562], [-74.768307, 39.749558], [-74.773, 39.75111], [-74.773723, 39.75351], [-74.77503, 39.754312], [-74.774991, 39.756401], [-74.776937, 39.75779], [-74.781204, 39.758587], [-74.782508, 39.760037], [-74.782403, 39.761377], [-74.78376, 39.762451], [-74.783531, 39.763594], [-74.785294, 39.765757], [-74.78792, 39.7669], [-74.790724, 39.771303], [-74.79532, 39.773609], [-74.79676, 39.775713], [-74.798148, 39.775721], [-74.799018, 39.776392], [-74.798817, 39.777439], [-74.8061, 39.783013], [-74.81043, 39.784822], [-74.817983, 39.786022], [-74.819419, 39.788001], [-74.827714, 39.789202], [-74.830539, 39.788625], [-74.843208, 39.789919], [-74.847917, 39.788596], [-74.851449, 39.788602], [-74.853228, 39.78731], [-74.867953, 39.784766], [-74.876108, 39.781473], [-74.889814, 39.781982], [-74.894822, 39.783312], [-74.898321, 39.78781], [-74.898633, 39.789693], [-74.902963, 39.791108], [-74.930745, 39.885908], [-74.940945, 39.892478], [-74.943964, 39.892996], [-74.945533, 39.896322], [-74.949982, 39.898743], [-74.951947, 39.901672], [-74.95253, 39.907118], [-74.955904, 39.913217], [-74.960895, 39.916822], [-74.962837, 39.920185], [-74.967374, 39.920712], [-74.969637, 39.921746], [-74.974283, 39.921421], [-74.983873, 39.926796], [-74.985519, 39.929995], [-74.98455, 39.931292], [-74.981422, 39.931111], [-74.980745, 39.934166], [-74.978707, 39.934305], [-74.975084, 39.937811], [-74.97558, 39.939613], [-74.982232, 39.940443], [-74.987267, 39.939875], [-74.988739, 39.940971], [-74.99181, 39.940915], [-74.994428, 39.939365], [-74.999859, 39.940796], [-75.000141, 39.941693], [-75.004149, 39.941465], [-75.004725, 39.943091], [-75.006189, 39.942904], [-75.009065, 39.94512], [-75.012503, 39.945157], [-75.015081, 39.946813], [-75.016159, 39.950453], [-75.013331, 39.954201], [-75.013092, 39.956628], [-75.0176, 39.959375], [-75.016542, 39.960553], [-75.016662, 39.962301], [-75.018649, 39.963735], [-75.018907, 39.967176], [-75.020094, 39.968047], [-75.019866, 39.969361], [-75.016197, 39.97014], [-75.01599, 39.97259], [-75.017615, 39.973588], [-75.017028, 39.974775], [-75.016036, 39.973691], [-75.014796, 39.974901], [-75.015583, 39.975539], [-75.015417, 39.976513], [-75.014192, 39.976521], [-75.010146, 39.979768], [-75.013836, 39.980311], [-75.014686, 39.985064], [-75.018192, 39.986695], [-75.018387, 39.988954], [-75.02033, 39.990396], [-75.02203, 39.989993], [-75.025313, 39.990978], [-75.027353, 39.993589], [-75.028394, 39.991944], [-75.032497, 39.991798], [-75.033073, 39.992456], [-75.032323, 39.993925], [-75.036354, 39.996081], [-75.038965, 39.994766], [-75.041197, 39.994887], [-75.042784, 39.993396], [-75.045187, 39.994739], [-75.047893, 39.994084], [-75.049419, 39.991261], [-75.059913, 39.991529], [-75.058089, 39.997404], [-75.053405, 40.004568], [-75.04709, 40.009941], [-75.034216, 40.015219], [-75.013237, 40.020303], [-75.000617, 40.0287], [-74.973981, 40.048595], [-74.966891, 40.052716], [-74.938897, 40.066099], [-74.930642, 40.069537], [-74.924073, 40.071235], [-74.909103, 40.070505], [-74.877533, 40.079957], [-74.861756, 40.083462], [-74.859721, 40.085311], [-74.857634, 40.090215], [-74.853745, 40.093926], [-74.842215, 40.098502], [-74.835868, 40.103466], [-74.834084, 40.107184], [-74.833103, 40.111972], [-74.828646, 40.120497], [-74.826226, 40.124066], [-74.822531, 40.126844], [-74.815476, 40.127694], [-74.799421, 40.122703], [-74.784842, 40.120388], [-74.781555, 40.121454], [-74.762323, 40.132881], [-74.756006, 40.134778], [-74.743738, 40.134454], [-74.741184, 40.135165], [-74.724369, 40.146412], [-74.722048, 40.150311], [-74.71847, 40.150029], [-74.713873, 40.152653], [-74.71292, 40.156095], [-74.706269, 40.161793], [-74.704177, 40.168479], [-74.704607, 40.16903], [-74.706448, 40.168543], [-74.708043, 40.166844], [-74.709769, 40.16656], [-74.710782, 40.168045], [-74.708423, 40.171846], [-74.71267, 40.174408], [-74.712542, 40.175569], [-74.711051, 40.176411], [-74.709736, 40.17875], [-74.711157, 40.179677], [-74.711072, 40.180709], [-74.69998, 40.183525], [-74.699029, 40.18231], [-74.696229, 40.182756], [-74.69468, 40.182199], [-74.696521, 40.179292], [-74.696058, 40.178889], [-74.692195, 40.179189], [-74.690567, 40.17688], [-74.686808, 40.17726], [-74.685658, 40.175297], [-74.684444, 40.175753], [-74.685205, 40.176597], [-74.684486, 40.177954], [-74.682712, 40.176543], [-74.68287, 40.175578], [-74.682072, 40.175182], [-74.681268, 40.176239], [-74.679261, 40.173591], [-74.675623, 40.172668], [-74.674329, 40.170061], [-74.675527, 40.168359], [-74.67675, 40.16852], [-74.677536, 40.166131], [-74.673954, 40.166144], [-74.673424, 40.167077], [-74.6697, 40.16523], [-74.669531, 40.166549], [-74.668353, 40.166747], [-74.667293, 40.165703], [-74.665072, 40.16565], [-74.665029, 40.164641], [-74.663327, 40.165396], [-74.662023, 40.16493], [-74.661485, 40.162194], [-74.659582, 40.162357], [-74.658289, 40.160923], [-74.655603, 40.160205], [-74.654682, 40.158556], [-74.651986, 40.158972], [-74.64996, 40.15765], [-74.648854, 40.155786], [-74.645747, 40.155987], [-74.644531, 40.154635], [-74.641334, 40.155281], [-74.638518, 40.154356], [-74.637998, 40.151889], [-74.636526, 40.151227], [-74.634899, 40.151569], [-74.633679, 40.150403], [-74.633851, 40.149095], [-74.631606, 40.150431], [-74.630226, 40.148821], [-74.627486, 40.148603], [-74.627461, 40.149405], [-74.62539, 40.149575], [-74.62316, 40.148638], [-74.623425, 40.146343], [-74.622086, 40.144896], [-74.623382, 40.142711], [-74.621795, 40.141123], [-74.61863, 40.140528], [-74.616407, 40.141597], [-74.615071, 40.140467], [-74.609924, 40.139682], [-74.607039, 40.140711], [-74.606679, 40.140085], [-74.607637, 40.139393], [-74.606873, 40.138449], [-74.603303, 40.138624], [-74.601691, 40.136773], [-74.597992, 40.137824], [-74.587835, 40.138254], [-74.52869, 40.037449], [-74.506372, 39.991225], [-74.471511, 39.924922], [-74.429415, 39.845403], [-74.389708, 39.773283], [-74.390399, 39.596037], [-74.392301, 39.59456], [-74.396025, 39.586365], [-74.398283, 39.57637], [-74.400819, 39.572242], [-74.403148, 39.571784], [-74.405159, 39.569593], [-74.408923, 39.569599], [-74.410395, 39.571021], [-74.412734, 39.57022], [-74.41599, 39.57046], [-74.418833, 39.568583], [-74.419093, 39.567829], [-74.417096, 39.564112], [-74.414097, 39.562396], [-74.414398, 39.560977], [-74.416599, 39.559211], [-74.417386, 39.557279], [-74.419847, 39.557531], [-74.425392, 39.553521], [-74.427852, 39.553164], [-74.433931, 39.555628], [-74.438368, 39.553519], [-74.43835, 39.551313], [-74.434255, 39.546576], [-74.433447, 39.543839], [-74.434448, 39.541958], [-74.4375, 39.541198], [-74.441998, 39.542779], [-74.445734, 39.546352], [-74.446135, 39.549743], [-74.443566, 39.554758], [-74.443889, 39.556864], [-74.446722, 39.559061], [-74.450757, 39.558464], [-74.452615, 39.556915], [-74.453446, 39.548573], [-74.455196, 39.547423], [-74.457308, 39.547317], [-74.459576, 39.548575], [-74.460754, 39.554281], [-74.463166, 39.556479], [-74.467759, 39.555667], [-74.471833, 39.551994], [-74.473757, 39.551235], [-74.475664, 39.55146], [-74.477867, 39.553093], [-74.480497, 39.557039], [-74.483253, 39.558596], [-74.48635, 39.558211], [-74.490477, 39.555934], [-74.493052, 39.555627], [-74.493982, 39.556213], [-74.494868, 39.56134], [-74.496148, 39.562501], [-74.5, 39.564458], [-74.504495, 39.5692], [-74.511463, 39.569397], [-74.515301, 39.574172], [-74.517023, 39.574151], [-74.521712, 39.570246], [-74.525622, 39.569355], [-74.529529, 39.570552], [-74.532389, 39.57337], [-74.539701, 39.574988], [-74.542641, 39.57912], [-74.541981, 39.585816], [-74.54797, 39.589075], [-74.553754, 39.598337], [-74.563331, 39.596715], [-74.571711, 39.598939], [-74.577026, 39.598795], [-74.580173, 39.602856], [-74.585126, 39.604952], [-74.58621, 39.606161], [-74.586988, 39.609946], [-74.588718, 39.611802], [-74.594435, 39.613326], [-74.610995, 39.622771], [-74.616327, 39.623444], [-74.621028, 39.626691], [-74.624746, 39.625757], [-74.626559, 39.621381], [-74.628775, 39.620093], [-74.631571, 39.62096], [-74.632038, 39.622138], [-74.631396, 39.625006], [-74.632048, 39.62668], [-74.634023, 39.628026], [-74.635587, 39.627116], [-74.63749, 39.623254], [-74.639303, 39.622439], [-74.640224, 39.622624], [-74.640998, 39.624273], [-74.639915, 39.624849], [-74.640216, 39.625557], [-74.644453, 39.625898], [-74.647964, 39.625074], [-74.647735, 39.62602], [-74.648547, 39.626749], [-74.647471, 39.62771], [-74.64895, 39.629003], [-74.650663, 39.628623], [-74.652998, 39.626587], [-74.655021, 39.627119], [-74.654464, 39.629918], [-74.655401, 39.630911], [-74.659295, 39.631233], [-74.658321, 39.635963], [-74.659876, 39.639409], [-74.659256, 39.639761], [-74.659667, 39.64077], [-74.657599, 39.642512], [-74.657095, 39.644842], [-74.659342, 39.646821], [-74.65811, 39.64897], [-74.658803, 39.649712], [-74.658558, 39.651704], [-74.66038, 39.652539], [-74.658447, 39.653966], [-74.6592, 39.655958], [-74.658259, 39.656848], [-74.65911, 39.660071], [-74.657703, 39.660469], [-74.657863, 39.661382], [-74.659692, 39.662609], [-74.660479, 39.668799], [-74.661216, 39.670204], [-74.662869, 39.671051], [-74.661818, 39.67172], [-74.662036, 39.6724], [-74.6636, 39.672583], [-74.664939, 39.674784], [-74.665122, 39.676117], [-74.664327, 39.676763], [-74.667835, 39.68358], [-74.673814, 39.687212], [-74.673749, 39.688679], [-74.674805, 39.688928], [-74.676141, 39.691617]]]}}, {"type": "Feature", "properties": {"county": "Salem & Cumberland", "lon": -75.28709379408127, "lat": 39.568017999999995, "n_pumas": 1}, "geometry": {"type": "Polygon", "coordinates": [[[-75.48136, 39.387555], [-75.560538, 39.455645], [-75.563586, 39.483048], [-75.55909, 39.495806], [-75.537934, 39.496982], [-75.527861, 39.498139], [-75.526823, 39.499411], [-75.529368, 39.501229], [-75.530051, 39.504817], [-75.529741, 39.51204], [-75.527522, 39.515614], [-75.527394, 39.517443], [-75.528264, 39.518082], [-75.526654, 39.526638], [-75.526919, 39.531891], [-75.527799, 39.535364], [-75.531968, 39.537165], [-75.533975, 39.540218], [-75.533412, 39.542044], [-75.524736, 39.549659], [-75.518144, 39.556684], [-75.51196, 39.56729], [-75.51277, 39.57829], [-75.514658, 39.580788], [-75.519575, 39.583307], [-75.527693, 39.584112], [-75.530493, 39.5868], [-75.531279, 39.588697], [-75.533641, 39.58927], [-75.536941, 39.591872], [-75.537375, 39.593532], [-75.542146, 39.594519], [-75.550318, 39.600766], [-75.553398, 39.601766], [-75.554031, 39.603818], [-75.556974, 39.607576], [-75.557432, 39.609534], [-75.556641, 39.610934], [-75.557898, 39.61751], [-75.558908, 39.618483], [-75.559566, 39.625418], [-75.558773, 39.629987], [-75.557327, 39.632591], [-75.554266, 39.635566], [-75.548534, 39.63777], [-75.541978, 39.645425], [-75.533524, 39.647557], [-75.527829, 39.653064], [-75.521838, 39.660988], [-75.516008, 39.665758], [-75.51219, 39.671767], [-75.510993, 39.675351], [-75.509089, 39.686208], [-75.509163, 39.69208], [-75.509874, 39.693915], [-75.506536, 39.697263], [-75.496312, 39.700956], [-75.493892, 39.706879], [-75.488384, 39.714708], [-75.485342, 39.715898], [-75.481883, 39.713686], [-75.479728, 39.713665], [-75.476519, 39.716101], [-75.476302, 39.723946], [-75.477169, 39.72497], [-75.475064, 39.72954], [-75.475557, 39.733532], [-75.467904, 39.746135], [-75.46355, 39.757014], [-75.463921, 39.760763], [-75.45944, 39.765811], [-75.452339, 39.769013], [-75.449295, 39.774436], [-75.450293, 39.775279], [-75.4383, 39.784402], [-75.405489, 39.796368], [-75.404274, 39.795567], [-75.411302, 39.793538], [-75.419329, 39.789725], [-75.423178, 39.786248], [-75.428302, 39.784373], [-75.427953, 39.783705], [-75.417398, 39.785626], [-75.41351, 39.785011], [-75.409172, 39.787749], [-75.407517, 39.78724], [-75.40719, 39.785249], [-75.406185, 39.784206], [-75.408075, 39.78195], [-75.407584, 39.781126], [-75.404772, 39.781635], [-75.404011, 39.782874], [-75.402324, 39.782469], [-75.400104, 39.777354], [-75.400972, 39.775125], [-75.400394, 39.77297], [-75.399378, 39.772565], [-75.395372, 39.774205], [-75.395215, 39.772609], [-75.397367, 39.769234], [-75.400232, 39.767827], [-75.40165, 39.767883], [-75.403278, 39.770037], [-75.404922, 39.769043], [-75.405959, 39.763484], [-75.403204, 39.761253], [-75.399406, 39.76141], [-75.399491, 39.758426], [-75.39782, 39.757473], [-75.396623, 39.759417], [-75.396946, 39.760802], [-75.396118, 39.76138], [-75.389947, 39.76051], [-75.389965, 39.759659], [-75.392341, 39.758838], [-75.392749, 39.757975], [-75.390283, 39.757], [-75.390108, 39.75618], [-75.39117, 39.755309], [-75.393903, 39.755694], [-75.394993, 39.754945], [-75.394662, 39.753117], [-75.392687, 39.750644], [-75.390673, 39.750075], [-75.390622, 39.75121], [-75.388875, 39.752384], [-75.387903, 39.751754], [-75.387858, 39.750621], [-75.386366, 39.750837], [-75.387259, 39.749505], [-75.385847, 39.746969], [-75.383985, 39.746977], [-75.383211, 39.745797], [-75.381165, 39.746795], [-75.381306, 39.748022], [-75.380468, 39.748272], [-75.378627, 39.74703], [-75.376699, 39.741723], [-75.377777, 39.740996], [-75.376426, 39.73977], [-75.37735, 39.739055], [-75.377, 39.738024], [-75.374809, 39.737154], [-75.374102, 39.735374], [-75.375298, 39.734002], [-75.37563, 39.73189], [-75.377541, 39.731701], [-75.377964, 39.730462], [-75.375795, 39.729966], [-75.376635, 39.726572], [-75.374971, 39.726398], [-75.375263, 39.725329], [-75.372951, 39.724028], [-75.372342, 39.724774], [-75.370445, 39.723177], [-75.369163, 39.723249], [-75.369293, 39.721985], [-75.367436, 39.722286], [-75.367264, 39.720787], [-75.366335, 39.720198], [-75.367307, 39.719229], [-75.367239, 39.717565], [-75.366151, 39.71775], [-75.365318, 39.716492], [-75.36397, 39.71688], [-75.362637, 39.715924], [-75.361228, 39.71659], [-75.360271, 39.715289], [-75.360616, 39.714023], [-75.357225, 39.712963], [-75.356404, 39.712017], [-75.350252, 39.711247], [-75.348118, 39.70919], [-75.347428, 39.707108], [-75.34159, 39.704329], [-75.340297, 39.705213], [-75.336834, 39.704291], [-75.335285, 39.700378], [-75.331451, 39.698591], [-75.330903, 39.696779], [-75.326422, 39.696064], [-75.325549, 39.694684], [-75.326635, 39.694269], [-75.32672, 39.690372], [-75.324376, 39.689451], [-75.323062, 39.689744], [-75.322996, 39.690692], [-75.321784, 39.69125], [-75.316714, 39.691397], [-75.313753, 39.690186], [-75.314769, 39.6885], [-75.311714, 39.68781], [-75.310393, 39.68903], [-75.3073, 39.689605], [-75.304622, 39.687882], [-75.302159, 39.688404], [-75.297161, 39.685834], [-75.295145, 39.686154], [-75.291471, 39.683774], [-75.291052, 39.682759], [-75.287775, 39.681496], [-75.285999, 39.679588], [-75.279521, 39.680984], [-75.276021, 39.680424], [-75.270621, 39.682134], [-75.265773, 39.682226], [-75.261969, 39.681716], [-75.255359, 39.678755], [-75.253278, 39.679026], [-75.253018, 39.677798], [-75.251226, 39.676608], [-75.25171, 39.674414], [-75.250063, 39.673245], [-75.251127, 39.670952], [-75.250304, 39.6697], [-75.250704, 39.66862], [-75.247474, 39.664486], [-75.236116, 39.662609], [-75.235128, 39.661707], [-75.22887, 39.661941], [-75.22393, 39.663077], [-75.219373, 39.661822], [-75.212945, 39.664504], [-75.210484, 39.664027], [-75.199793, 39.666996], [-75.196915, 39.663657], [-75.194354, 39.662913], [-75.156952, 39.636737], [-75.061854, 39.568746], [-75.066286, 39.560475], [-75.065917, 39.558511], [-75.066661, 39.556226], [-75.069871, 39.553119], [-75.07158, 39.548629], [-75.073643, 39.547373], [-75.074457, 39.544564], [-75.071047, 39.539947], [-75.072138, 39.537571], [-75.071511, 39.536684], [-75.072641, 39.536075], [-75.072099, 39.532527], [-75.071063, 39.532445], [-75.073397, 39.526717], [-75.072222, 39.524283], [-75.072917, 39.52189], [-75.075604, 39.518936], [-75.075451, 39.515123], [-75.078015, 39.511984], [-75.077151, 39.511104], [-75.077873, 39.509803], [-75.076642, 39.507825], [-75.077995, 39.506778], [-75.077127, 39.505981], [-75.079699, 39.501434], [-75.078377, 39.496974], [-75.076981, 39.496848], [-75.075859, 39.494435], [-75.074073, 39.492814], [-75.075421, 39.489733], [-75.073425, 39.484475], [-75.07426, 39.484166], [-75.074597, 39.482134], [-75.075892, 39.481644], [-75.075953, 39.479226], [-75.077328, 39.478553], [-75.078687, 39.472404], [-75.080352, 39.472023], [-75.080743, 39.469584], [-75.079624, 39.468385], [-75.081312, 39.467494], [-75.081796, 39.465478], [-75.080642, 39.462667], [-75.080855, 39.460942], [-75.083828, 39.457548], [-75.083183, 39.455973], [-75.081574, 39.455046], [-75.083013, 39.450699], [-75.082279, 39.450415], [-75.082306, 39.449236], [-75.086613, 39.447807], [-75.08447, 39.444104], [-75.100183, 39.43944], [-75.104463, 39.435412], [-75.107856, 39.43434], [-75.11706, 39.433273], [-75.118991, 39.432352], [-75.123542, 39.432532], [-75.133677, 39.43093], [-75.138892, 39.432228], [-75.140963, 39.431933], [-75.147369, 39.430079], [-75.150099, 39.428291], [-75.181345, 39.434345], [-75.183697, 39.437501], [-75.19443, 39.43693], [-75.197811, 39.434958], [-75.206191, 39.434403], [-75.207824, 39.435387], [-75.204616, 39.416354], [-75.211279, 39.415461], [-75.210035, 39.410182], [-75.221655, 39.406948], [-75.231278, 39.40228], [-75.228001, 39.401272], [-75.226606, 39.398902], [-75.226002, 39.39276], [-75.226303, 39.391309], [-75.227926, 39.389651], [-75.228228, 39.387445], [-75.22692, 39.382571], [-75.227707, 39.38205], [-75.235625, 39.378961], [-75.242004, 39.379242], [-75.248074, 39.37654], [-75.249464, 39.376785], [-75.251683, 39.379452], [-75.254023, 39.379619], [-75.258361, 39.37655], [-75.259983, 39.376471], [-75.261731, 39.377214], [-75.261823, 39.382057], [-75.263495, 39.38215], [-75.268689, 39.379165], [-75.269849, 39.38031], [-75.269222, 39.382751], [-75.269787, 39.384887], [-75.27286, 39.386043], [-75.276034, 39.38486], [-75.276558, 39.383924], [-75.27643, 39.379168], [-75.278166, 39.378354], [-75.280238, 39.378952], [-75.281593, 39.380879], [-75.284302, 39.381764], [-75.287519, 39.379875], [-75.287591, 39.376998], [-75.288521, 39.375168], [-75.293074, 39.374462], [-75.296081, 39.37661], [-75.296981, 39.381127], [-75.297851, 39.381997], [-75.301001, 39.382661], [-75.30575, 39.3815], [-75.307802, 39.384057], [-75.307285, 39.388038], [-75.308778, 39.389282], [-75.31937, 39.389792], [-75.318941, 39.383788], [-75.322421, 39.381423], [-75.326022, 39.3823], [-75.327655, 39.385329], [-75.329318, 39.386702], [-75.333176, 39.386721], [-75.334178, 39.385845], [-75.334115, 39.384778], [-75.331624, 39.382399], [-75.330803, 39.379864], [-75.33425, 39.377662], [-75.340406, 39.378522], [-75.346064, 39.382375], [-75.349449, 39.382681], [-75.354604, 39.377835], [-75.353665, 39.376635], [-75.348856, 39.375285], [-75.347651, 39.372668], [-75.348395, 39.369733], [-75.35071, 39.368317], [-75.356067, 39.368256], [-75.356518, 39.367079], [-75.354689, 39.363242], [-75.355484, 39.361144], [-75.357189, 39.360015], [-75.364165, 39.358625], [-75.366188, 39.35577], [-75.365364, 39.353349], [-75.3642, 39.352681], [-75.357753, 39.352275], [-75.35675, 39.350847], [-75.36366, 39.347077], [-75.36366, 39.344993], [-75.361609, 39.343698], [-75.356954, 39.344143], [-75.356465, 39.343147], [-75.358146, 39.340246], [-75.360297, 39.339893], [-75.365271, 39.341781], [-75.365931, 39.344533], [-75.368183, 39.347668], [-75.367951, 39.348613], [-75.370649, 39.352061], [-75.376412, 39.354457], [-75.382221, 39.354767], [-75.385157, 39.355691], [-75.391741, 39.359847], [-75.393996, 39.36422], [-75.394345, 39.372355], [-75.39663, 39.37396], [-75.396856, 39.374998], [-75.398679, 39.374998], [-75.397896, 39.377157], [-75.39873, 39.379322], [-75.400754, 39.379729], [-75.401122, 39.380762], [-75.406685, 39.380295], [-75.412884, 39.375113], [-75.444751, 39.355089], [-75.469436, 39.373147], [-75.48136, 39.387555]]]}}, {"type": "Feature", "properties": {"county": "New Castle", "lon": -75.64753928487065, "lat": 39.5649745, "n_pumas": 5}, "geometry": {"type": "Polygon", "coordinates": [[[-75.43467, 39.812488], [-75.405489, 39.796368], [-75.4383, 39.784402], [-75.450293, 39.775279], [-75.449295, 39.774436], [-75.452339, 39.769013], [-75.45944, 39.765811], [-75.462198, 39.763197], [-75.463921, 39.760763], [-75.46355, 39.757014], [-75.467904, 39.746135], [-75.475557, 39.733532], [-75.475064, 39.72954], [-75.477169, 39.72497], [-75.476302, 39.723946], [-75.476519, 39.716101], [-75.479728, 39.713665], [-75.481883, 39.713686], [-75.485342, 39.715898], [-75.488384, 39.714708], [-75.493892, 39.706879], [-75.496312, 39.700956], [-75.506536, 39.697263], [-75.509874, 39.693915], [-75.509163, 39.69208], [-75.509089, 39.686208], [-75.510993, 39.675351], [-75.51219, 39.671767], [-75.516008, 39.665758], [-75.521838, 39.660988], [-75.527829, 39.653064], [-75.533524, 39.647557], [-75.541978, 39.645425], [-75.548534, 39.63777], [-75.554266, 39.635566], [-75.557327, 39.632591], [-75.558773, 39.629987], [-75.559566, 39.625418], [-75.558908, 39.618483], [-75.557898, 39.61751], [-75.556641, 39.610934], [-75.557432, 39.609534], [-75.556974, 39.607576], [-75.554031, 39.603818], [-75.553398, 39.601766], [-75.550318, 39.600766], [-75.542146, 39.594519], [-75.537375, 39.593532], [-75.536941, 39.591872], [-75.533641, 39.58927], [-75.531279, 39.588697], [-75.530493, 39.5868], [-75.527693, 39.584112], [-75.519575, 39.583307], [-75.514658, 39.580788], [-75.51277, 39.57829], [-75.51196, 39.56729], [-75.518144, 39.556684], [-75.524736, 39.549659], [-75.533412, 39.542044], [-75.533975, 39.540218], [-75.531968, 39.537165], [-75.527799, 39.535364], [-75.526919, 39.531891], [-75.526654, 39.526638], [-75.528264, 39.518082], [-75.527394, 39.517443], [-75.527522, 39.515614], [-75.529741, 39.51204], [-75.530051, 39.504817], [-75.529368, 39.501229], [-75.526823, 39.499411], [-75.527861, 39.498139], [-75.537934, 39.496982], [-75.55909, 39.495806], [-75.563586, 39.483048], [-75.560538, 39.455645], [-75.48136, 39.387555], [-75.511777, 39.36603], [-75.515975, 39.364363], [-75.516897, 39.360988], [-75.52142, 39.358607], [-75.523254, 39.359712], [-75.527257, 39.359243], [-75.528453, 39.358305], [-75.528673, 39.356782], [-75.527259, 39.354675], [-75.528696, 39.35343], [-75.531914, 39.354595], [-75.533549, 39.354047], [-75.534484, 39.351389], [-75.535849, 39.350617], [-75.538156, 39.351336], [-75.540299, 39.354174], [-75.541586, 39.354366], [-75.545216, 39.350763], [-75.54811, 39.351713], [-75.548131, 39.352921], [-75.549065, 39.353673], [-75.551626, 39.35394], [-75.553369, 39.35301], [-75.554683, 39.351506], [-75.553841, 39.349938], [-75.551096, 39.349483], [-75.55104, 39.345568], [-75.554223, 39.345404], [-75.557378, 39.349101], [-75.560519, 39.345067], [-75.559982, 39.343466], [-75.557846, 39.342764], [-75.557358, 39.341501], [-75.558334, 39.33923], [-75.556318, 39.337879], [-75.555681, 39.33653], [-75.556205, 39.335325], [-75.558843, 39.333334], [-75.564806, 39.331936], [-75.569007, 39.328744], [-75.56982, 39.326577], [-75.568716, 39.323523], [-75.574429, 39.313611], [-75.581145, 39.311131], [-75.584341, 39.308718], [-75.587325, 39.309699], [-75.587495, 39.311009], [-75.589511, 39.311679], [-75.592148, 39.311116], [-75.593441, 39.308546], [-75.596093, 39.31001], [-75.599218, 39.309737], [-75.599571, 39.308442], [-75.600737, 39.307959], [-75.603446, 39.309094], [-75.603149, 39.310559], [-75.603836, 39.311182], [-75.606598, 39.30809], [-75.611492, 39.309295], [-75.613153, 39.308349], [-75.614709, 39.308548], [-75.61606, 39.309735], [-75.619631, 39.310058], [-75.623264, 39.308029], [-75.625764, 39.304146], [-75.627531, 39.304438], [-75.632591, 39.301273], [-75.640841, 39.301454], [-75.641928, 39.300891], [-75.642566, 39.299247], [-75.64845, 39.295435], [-75.649179, 39.293151], [-75.651159, 39.291594], [-75.652947, 39.291949], [-75.654757, 39.291155], [-75.660476, 39.291672], [-75.664901, 39.290566], [-75.667269, 39.290417], [-75.669276, 39.291397], [-75.675561, 39.290653], [-75.678042, 39.292477], [-75.680261, 39.292496], [-75.685188, 39.297089], [-75.714901, 39.299366], [-75.760074, 39.296819], [-75.788521, 39.648133], [-75.788596, 39.722199], [-75.773786, 39.7222], [-75.768603, 39.733325], [-75.760353, 39.747406], [-75.746707, 39.765141], [-75.736951, 39.775384], [-75.727175, 39.78422], [-75.708716, 39.798035], [-75.68974, 39.809301], [-75.6666, 39.819963], [-75.647448, 39.826703], [-75.624347, 39.832695], [-75.59488, 39.837525], [-75.56809, 39.839405], [-75.544646, 39.83915], [-75.515564, 39.836361], [-75.486563, 39.830736], [-75.461293, 39.823286], [-75.43467, 39.812488]]]}}, {"type": "Feature", "properties": {"county": "Cecil", "lon": -75.92657344740684, "lat": 39.539683, "n_pumas": 1}, "geometry": {"type": "Polygon", "coordinates": [[[-76.233279, 39.721367], [-75.788596, 39.722199], [-75.788521, 39.648133], [-75.766594, 39.377563], [-75.772688, 39.379525], [-75.776369, 39.379059], [-75.776213, 39.380026], [-75.781095, 39.382125], [-75.784443, 39.3825], [-75.784415, 39.380363], [-75.788032, 39.380353], [-75.789398, 39.381128], [-75.791182, 39.379925], [-75.794239, 39.379744], [-75.795726, 39.37724], [-75.80182, 39.377922], [-75.803794, 39.376972], [-75.804686, 39.375434], [-75.806498, 39.375467], [-75.806165, 39.376799], [-75.8092, 39.378101], [-75.809452, 39.379749], [-75.816313, 39.380654], [-75.818829, 39.382299], [-75.823658, 39.381413], [-75.829513, 39.376499], [-75.831173, 39.374173], [-75.842385, 39.370978], [-75.845476, 39.367698], [-75.848501, 39.368208], [-75.85543, 39.364562], [-75.861038, 39.36761], [-75.863754, 39.366436], [-75.868377, 39.367721], [-75.874412, 39.365791], [-75.879463, 39.365467], [-75.882141, 39.364322], [-75.885864, 39.360797], [-75.894523, 39.365638], [-75.903793, 39.364345], [-75.908035, 39.364501], [-75.915008, 39.366584], [-75.922775, 39.367248], [-75.92794, 39.371456], [-75.932022, 39.371505], [-75.939849, 39.367786], [-75.942337, 39.367752], [-75.945365, 39.368583], [-75.94934, 39.372509], [-75.95697, 39.374603], [-75.964065, 39.374725], [-75.968269, 39.373973], [-75.970603, 39.372852], [-75.976249, 39.367458], [-75.981109, 39.366569], [-75.987136, 39.372577], [-75.995094, 39.376106], [-76.000221, 39.376651], [-76.021202, 39.375282], [-76.032661, 39.376346], [-76.0419, 39.378192], [-76.050743, 39.381343], [-76.05587, 39.384105], [-76.068595, 39.393268], [-76.079925, 39.405506], [-76.062575, 39.415939], [-76.051028, 39.426214], [-76.042902, 39.438215], [-76.039536, 39.446399], [-76.036956, 39.455445], [-76.035766, 39.465692], [-76.037067, 39.477281], [-76.039234, 39.486261], [-76.04413, 39.499448], [-76.050472, 39.509814], [-76.058871, 39.519613], [-76.069871, 39.534512], [-76.085972, 39.559011], [-76.088012, 39.560436], [-76.135974, 39.614108], [-76.147474, 39.619407], [-76.161765, 39.649621], [-76.168412, 39.656133], [-76.183975, 39.666606], [-76.186575, 39.669506], [-76.193076, 39.672705], [-76.195476, 39.675105], [-76.212676, 39.686405], [-76.229282, 39.709127], [-76.233279, 39.721367]]]}}]}